{
    "links": {
        "self": "http://www.neowsapp.com/rest/v1/neo/3786444?api_key=iIulBulltgU6a56xZRHN4H3l9WmuAYTsLGpBGhQ2"
    },
    "id": "3786444",
    "neo_reference_id": "3786444",
    "name": "(2017 TG6)",
    "designation": "2017 TG6",
    "nasa_jpl_url": "http://ssd.jpl.nasa.gov/sbdb.cgi?sstr=3786444",
    "absolute_magnitude_h": 22.0,
    "estimated_diameter": {
        "kilometers": {
            "estimated_diameter_min": 0.1058168859,
            "estimated_diameter_max": 0.2366137501
        },
        "meters": {
            "estimated_diameter_min": 105.8168859331,
            "estimated_diameter_max": 236.6137501138
        },
        "miles": {
            "estimated_diameter_min": 0.0657515442,
            "estimated_diameter_max": 0.1470249225
        },
        "feet": {
            "estimated_diameter_min": 347.1682720448,
            "estimated_diameter_max": 776.2918559233
        }
    },
    "is_potentially_hazardous_asteroid": false,
    "close_approach_data": [
        {
            "close_approach_date": "1911-09-15",
            "close_approach_date_full": "1911-Sep-15 14:11",
            "epoch_date_close_approach": -1839664140000,
            "relative_velocity": {
                "kilometers_per_second": "7.8645705057",
                "kilometers_per_hour": "28312.4538206977",
                "miles_per_hour": "17592.2577643107"
            },
            "miss_distance": {
                "astronomical": "0.1724666322",
                "lunar": "67.0895199258",
                "kilometers": "25800640.823193414",
                "miles": "16031774.8042565532"
            },
            "orbiting_body": "Earth"
        },
        {
            "close_approach_date": "2017-09-18",
            "close_approach_date_full": "2017-Sep-18 06:56",
            "epoch_date_close_approach": 1505717760000,
            "relative_velocity": {
                "kilometers_per_second": "8.1967543177",
                "kilometers_per_hour": "29508.3155437577",
                "miles_per_hour": "18335.3197332866"
            },
            "miss_distance": {
                "astronomical": "0.1733931896",
                "lunar": "67.4499507544",
                "kilometers": "25939251.836666152",
                "miles": "16117903.6941788176"
            },
            "orbiting_body": "Earth"
        }
    ],
    "orbital_data": {
        "orbit_id": "5",
        "orbit_determination_date": "2017-10-28 06:43:07",
        "first_observation_date": "2017-10-15",
        "last_observation_date": "2017-10-28",
        "data_arc_in_days": 13,
        "observations_used": 48,
        "orbit_uncertainty": "8",
        "minimum_orbit_intersection": ".115426",
        "jupiter_tisserand_invariant": "3.553",
        "epoch_osculation": "2458045.5",
        "eccentricity": ".4877906503609856",
        "semi_major_axis": "2.134331574914441",
        "inclination": "4.39775383962442",
        "ascending_node_longitude": "239.6814229448083",
        "orbital_period": "1138.914863600319",
        "perihelion_distance": "1.093224587900939",
        "perihelion_argument": "96.53659149482668",
        "aphelion_distance": "3.175438561927943",
        "perihelion_time": "2458002.943238740666",
        "mean_anomaly": "13.45178164145609",
        "mean_motion": ".316090351882821",
        "equinox": "J2000",
        "orbit_class": {
            "orbit_class_type": "AMO",
            "orbit_class_description": "Near-Earth asteroid orbits similar to that of 1221 Amor",
            "orbit_class_range": "1.017 AU < q (perihelion) < 1.3 AU"
        }
    },
    "is_sentry_object": false
}